[{"OBJECT_NAME":"STARLINK-36981","OBJECT_ID":"2026-049G","EPOCH":"2026-04-04T05:38:34.502784","MEAN_MOTION":15.80957795,"ECCENTRICITY":0.00012259,"INCLINATION":97.2858,"RA_OF_ASC_NODE":114.8034,"ARG_OF_PERICENTER":84.7844,"MEAN_ANOMALY":275.3565,"EPHEMERIS_TYPE":0,"CLASSIFICATION_TYPE":"U","NORAD_CAT_ID":68148,"ELEMENT_SET_NO":999,"REV_AT_EPOCH":344,"BSTAR":0.00096093985,"MEAN_MOTION_DOT":0.0018919,"MEAN_MOTION_DDOT":0},{"OBJECT_NAME":"STARLINK-36992","OBJECT_ID":"2026-049H","EPOCH":"2026-04-04T05:37:29.570592","MEAN_MOTION":15.809755,"ECCENTRICITY":9.747e-5,"INCLINATION":97.2857,"RA_OF_ASC_NODE":114.8042,"ARG_OF_PERICENTER":76.5916,"MEAN_ANOMALY":283.5461,"EPHEMERIS_TYPE":0,"CLASSIFICATION_TYPE":"U","NORAD_CAT_ID":68149,"ELEMENT_SET_NO":999,"REV_AT_EPOCH":344,"BSTAR":0.00097072672,"MEAN_MOTION_DOT":0.0019132,"MEAN_MOTION_DDOT":0},{"OBJECT_NAME":"STARLINK-37060","OBJECT_ID":"2026-049J","EPOCH":"2026-04-04T05:36:24.651360","MEAN_MOTION":15.80969218,"ECCENTRICITY":0.00013004,"INCLINATION":97.2857,"RA_OF_ASC_NODE":114.8052,"ARG_OF_PERICENTER":91.2664,"MEAN_ANOMALY":268.8753,"EPHEMERIS_TYPE":0,"CLASSIFICATION_TYPE":"U","NORAD_CAT_ID":68150,"ELEMENT_SET_NO":999,"REV_AT_EPOCH":344,"BSTAR":0.00093718954,"MEAN_MOTION_DOT":0.00184507,"MEAN_MOTION_DDOT":0},{"OBJECT_NAME":"STARLINK-37073","OBJECT_ID":"2026-049K","EPOCH":"2026-04-04T06:00:02.000160","MEAN_MOTION":15.75278254,"ECCENTRICITY":0.00016298,"INCLINATION":97.2849,"RA_OF_ASC_NODE":114.7968,"ARG_OF_PERICENTER":131.1135,"MEAN_ANOMALY":261.408,"EPHEMERIS_TYPE":0,"CLASSIFICATION_TYPE":"U","NORAD_CAT_ID":68151,"ELEMENT_SET_NO":999,"REV_AT_EPOCH":473,"BSTAR":-0.0014137564,"MEAN_MOTION_DOT":-0.00206783,"MEAN_MOTION_DDOT":0},{"OBJECT_NAME":"STARLINK-37049","OBJECT_ID":"2026-049L","EPOCH":"2026-04-04T06:00:02.000160","MEAN_MOTION":15.75172706,"ECCENTRICITY":8.346e-5,"INCLINATION":97.2849,"RA_OF_ASC_NODE":114.8154,"ARG_OF_PERICENTER":105.4041,"MEAN_ANOMALY":333.1206,"EPHEMERIS_TYPE":0,"CLASSIFICATION_TYPE":"U","NORAD_CAT_ID":68152,"ELEMENT_SET_NO":999,"REV_AT_EPOCH":473,"BSTAR":-0.00025897678,"MEAN_MOTION_DOT":-0.00038553,"MEAN_MOTION_DDOT":0},{"OBJECT_NAME":"STARLINK-37072","OBJECT_ID":"2026-049M","EPOCH":"2026-04-04T05:56:52.791936","MEAN_MOTION":15.75292843,"ECCENTRICITY":0.00014699,"INCLINATION":97.2851,"RA_OF_ASC_NODE":114.7861,"ARG_OF_PERICENTER":107.2678,"MEAN_ANOMALY":252.8748,"EPHEMERIS_TYPE":0,"CLASSIFICATION_TYPE":"U","NORAD_CAT_ID":68153,"ELEMENT_SET_NO":999,"REV_AT_EPOCH":344,"BSTAR":0.00089692139,"MEAN_MOTION_DOT":0.00136415,"MEAN_MOTION_DDOT":0},{"OBJECT_NAME":"STARLINK-36241","OBJECT_ID":"2026-049N","EPOCH":"2026-04-04T04:42:41.250528","MEAN_MOTION":15.75314474,"ECCENTRICITY":0.00013851,"INCLINATION":97.2844,"RA_OF_ASC_NODE":114.7019,"ARG_OF_PERICENTER":94.0802,"MEAN_ANOMALY":266.0621,"EPHEMERIS_TYPE":0,"CLASSIFICATION_TYPE":"U","NORAD_CAT_ID":68154,"ELEMENT_SET_NO":999,"REV_AT_EPOCH":343,"BSTAR":0.0013179662,"MEAN_MOTION_DOT":0.00202265,"MEAN_MOTION_DDOT":0},{"OBJECT_NAME":"STARLINK-37048","OBJECT_ID":"2026-049P","EPOCH":"2026-04-04T05:28:50.170080","MEAN_MOTION":15.81021345,"ECCENTRICITY":0.00014726,"INCLINATION":97.2853,"RA_OF_ASC_NODE":114.8119,"ARG_OF_PERICENTER":74.5439,"MEAN_ANOMALY":285.5992,"EPHEMERIS_TYPE":0,"CLASSIFICATION_TYPE":"U","NORAD_CAT_ID":68155,"ELEMENT_SET_NO":999,"REV_AT_EPOCH":344,"BSTAR":0.0013958526,"MEAN_MOTION_DOT":0.00278544,"MEAN_MOTION_DDOT":0},{"OBJECT_NAME":"STARLINK-36313","OBJECT_ID":"2026-049Q","EPOCH":"2026-04-04T05:29:55.062528","MEAN_MOTION":15.81007319,"ECCENTRICITY":0.00014927,"INCLINATION":97.2854,"RA_OF_ASC_NODE":114.8105,"ARG_OF_PERICENTER":71.1869,"MEAN_ANOMALY":288.9561,"EPHEMERIS_TYPE":0,"CLASSIFICATION_TYPE":"U","NORAD_CAT_ID":68156,"ELEMENT_SET_NO":999,"REV_AT_EPOCH":344,"BSTAR":0.0012844349,"MEAN_MOTION_DOT":0.00255451,"MEAN_MOTION_DDOT":0},{"OBJECT_NAME":"STARLINK-37064","OBJECT_ID":"2026-049R","EPOCH":"2026-04-04T05:32:04.898400","MEAN_MOTION":15.81005292,"ECCENTRICITY":8.008e-5,"INCLINATION":97.2854,"RA_OF_ASC_NODE":114.8086,"ARG_OF_PERICENTER":70.2859,"MEAN_ANOMALY":289.8496,"EPHEMERIS_TYPE":0,"CLASSIFICATION_TYPE":"U","NORAD_CAT_ID":68157,"ELEMENT_SET_NO":999,"REV_AT_EPOCH":344,"BSTAR":0.0013069464,"MEAN_MOTION_DOT":0.00260048,"MEAN_MOTION_DDOT":0},{"OBJECT_NAME":"STARLINK-37069","OBJECT_ID":"2026-049S","EPOCH":"2026-04-04T04:37:36.046848","MEAN_MOTION":15.75286983,"ECCENTRICITY":0.00016584,"INCLINATION":97.2847,"RA_OF_ASC_NODE":114.707,"ARG_OF_PERICENTER":114.4957,"MEAN_ANOMALY":245.6481,"EPHEMERIS_TYPE":0,"CLASSIFICATION_TYPE":"U","NORAD_CAT_ID":68158,"ELEMENT_SET_NO":999,"REV_AT_EPOCH":343,"BSTAR":0.0010384201,"MEAN_MOTION_DOT":0.00158326,"MEAN_MOTION_DDOT":0},{"OBJECT_NAME":"STARLINK-37053","OBJECT_ID":"2026-049T","EPOCH":"2026-04-04T06:00:02.000160","MEAN_MOTION":15.7519626,"ECCENTRICITY":0.00011417,"INCLINATION":97.2852,"RA_OF_ASC_NODE":114.8319,"ARG_OF_PERICENTER":87.0424,"MEAN_ANOMALY":27.4644,"EPHEMERIS_TYPE":0,"CLASSIFICATION_TYPE":"U","NORAD_CAT_ID":68159,"ELEMENT_SET_NO":999,"REV_AT_EPOCH":473,"BSTAR":-0.00025851688,"MEAN_MOTION_DOT":-0.00038525,"MEAN_MOTION_DDOT":0},{"OBJECT_NAME":"STARLINK-36306","OBJECT_ID":"2026-049U","EPOCH":"2026-04-04T04:32:00.813984","MEAN_MOTION":15.75335601,"ECCENTRICITY":0.00010354,"INCLINATION":97.2847,"RA_OF_ASC_NODE":114.7124,"ARG_OF_PERICENTER":125.384,"MEAN_ANOMALY":234.7522,"EPHEMERIS_TYPE":0,"CLASSIFICATION_TYPE":"U","NORAD_CAT_ID":68160,"ELEMENT_SET_NO":999,"REV_AT_EPOCH":343,"BSTAR":0.0017715194,"MEAN_MOTION_DOT":0.002745,"MEAN_MOTION_DDOT":0},{"OBJECT_NAME":"STARLINK-37057","OBJECT_ID":"2026-049V","EPOCH":"2026-04-04T06:00:02.000160","MEAN_MOTION":15.77804112,"ECCENTRICITY":0.00015155,"INCLINATION":97.2852,"RA_OF_ASC_NODE":114.8342,"ARG_OF_PERICENTER":73.586,"MEAN_ANOMALY":50.0437,"EPHEMERIS_TYPE":0,"CLASSIFICATION_TYPE":"U","NORAD_CAT_ID":68161,"ELEMENT_SET_NO":999,"REV_AT_EPOCH":473,"BSTAR":-0.013492042,"MEAN_MOTION_DOT":-0.0195973,"MEAN_MOTION_DDOT":0},{"OBJECT_NAME":"STARLINK-37013","OBJECT_ID":"2026-049W","EPOCH":"2026-04-04T05:20:10.738464","MEAN_MOTION":15.81004249,"ECCENTRICITY":0.00016866,"INCLINATION":97.2851,"RA_OF_ASC_NODE":114.8194,"ARG_OF_PERICENTER":102.0833,"MEAN_ANOMALY":258.0625,"EPHEMERIS_TYPE":0,"CLASSIFICATION_TYPE":"U","NORAD_CAT_ID":68162,"ELEMENT_SET_NO":999,"REV_AT_EPOCH":344,"BSTAR":0.0013330576,"MEAN_MOTION_DOT":0.00265395,"MEAN_MOTION_DDOT":0},{"OBJECT_NAME":"STARLINK-36958","OBJECT_ID":"2026-049X","EPOCH":"2026-04-04T06:00:02.000160","MEAN_MOTION":15.75196286,"ECCENTRICITY":0.00012297,"INCLINATION":97.2848,"RA_OF_ASC_NODE":114.8272,"ARG_OF_PERICENTER":119.057,"MEAN_ANOMALY":343.4907,"EPHEMERIS_TYPE":0,"CLASSIFICATION_TYPE":"U","NORAD_CAT_ID":68163,"ELEMENT_SET_NO":999,"REV_AT_EPOCH":473,"BSTAR":-0.00043311868,"MEAN_MOTION_DOT":-0.00064265,"MEAN_MOTION_DDOT":0}]
